IRIDIUM 159             
1 43578U 18061K   24171.59035172  .00000144  00000+0  44352-4 0  9990
2 43578  86.3972   0.7773 0002118  81.8210 278.3226 14.34216992309092
IRIDIUM 176             
1 43923U 19002B   24171.42875933  .00002465  00000+0  38697-3 0  9991
2 43923  86.6087 297.7451 0002489  87.6038 272.5464 14.72251201292174
IRIDIUM 168             
1 43924U 19002C   24171.44396934  .00000116  00000+0  34510-4 0  9995
2 43924  86.3962 297.7744 0002304  93.3230 266.8229 14.34217548284667
IRIDIUM 173             
1 43925U 19002D   24171.57082155  .00000037  00000+0  63126-5 0  9995
2 43925  86.3957 297.6398 0002140  90.8275 269.3166 14.34217497284666
IRIDIUM 172             
1 43927U 19002F   24171.63424732  .00000013  00000+0 -23857-5 0  9997
2 43927  86.3959 297.6191 0002229  91.0055 269.1396 14.34217724284686
IRIDIUM 175             
1 43928U 19002G   24171.55900001  .00001363  00000+0  21220-3 0  9995
2 43928  86.1508 270.6945 0001968  99.5376 260.6063 14.72236529292188
